{"type": "FeatureCollection", "features": [ {"type": "Feature", "properties": {"norad_id": 67021, "name": "STARLINK-36184", "group": "last-30-days", "lat": -18.672772746223163, "lon": -85.81640936876069, "alt_km": 364.6121205852578, "timestamp": "2025-12-27T11:23:18.581659+00:00", "meta": {"OBJECT_NAME": "STARLINK-36184", "OBJECT_ID": "2025-293U", "EPOCH": "2025-12-27T04:00:01.998720", "MEAN_MOTION": 15.70432812, "ECCENTRICITY": 0.0003572, "INCLINATION": 69.9972, "RA_OF_ASC_NODE": 282.1204, "ARG_OF_PERICENTER": 271.6445, "MEAN_ANOMALY": 129.3126, "EPHEMERIS_TYPE": 0, "CLASSIFICATION_TYPE": "U", "NORAD_CAT_ID": 67021, "ELEMENT_SET_NO": 999, "REV_AT_EPOCH": 253, "BSTAR": -0.014836, "MEAN_MOTION_DOT": -0.01619439, "MEAN_MOTION_DDOT": 0}, "tle": {"line1": "1 67021U 25293U   25361.16668980 -.01619439  00000+0 -14836-1 0  9995", "line2": "2 67021  69.9972 282.1204 0003572 271.6445 129.3126 15.70432812  2532"}}, "geometry": {"type": "Point", "coordinates": [-85.81640936876069, -18.672772746223163]}}, {"type": "Feature", "properties": {"norad_id": 67022, "name": "STARLINK-36209", "group": "last-30-days", "lat": -16.345915655712798, "lon": -84.88098642086366, "alt_km": 364.5954229773906, "timestamp": "2025-12-27T11:23:18.581669+00:00", "meta": {"OBJECT_NAME": "STARLINK-36209", "OBJECT_ID": "2025-293V", "EPOCH": "2025-12-27T04:00:01.998720", "MEAN_MOTION": 15.70398165, "ECCENTRICITY": 0.0003592, "INCLINATION": 69.9971, "RA_OF_ASC_NODE": 282.1174, "ARG_OF_PERICENTER": 271.4087, "MEAN_ANOMALY": 132.0797, "EPHEMERIS_TYPE": 0, "CLASSIFICATION_TYPE": "U", "NORAD_CAT_ID": 67022, "ELEMENT_SET_NO": 999, "REV_AT_EPOCH": 253, "BSTAR": -0.014847, "MEAN_MOTION_DOT": -0.01618342, "MEAN_MOTION_DDOT": 0}, "tle": {"line1": "1 67022U 25293V   25361.16668980 -.01618342  00000+0 -14847-1 0  9990", "line2": "2 67022  69.9971 282.1174 0003592 271.4087 132.0797 15.70398165  2537"}}, "geometry": {"type": "Point", "coordinates": [-84.88098642086366, -16.345915655712798]}}, {"type": "Feature", "properties": {"norad_id": 67023, "name": "STARLINK-36191", "group": "last-30-days", "lat": -14.250427307646662, "lon": -84.05898118166313, "alt_km": 364.5450402118713, "timestamp": "2025-12-27T11:23:18.581679+00:00", "meta": {"OBJECT_NAME": "STARLINK-36191", "OBJECT_ID": "2025-293W", "EPOCH": "2025-12-27T04:00:01.998720", "MEAN_MOTION": 15.70378321, "ECCENTRICITY": 0.0003775, "INCLINATION": 69.9979, "RA_OF_ASC_NODE": 282.1144, "ARG_OF_PERICENTER": 270.5501, "MEAN_ANOMALY": 135.2011, "EPHEMERIS_TYPE": 0, "CLASSIFICATION_TYPE": "U", "NORAD_CAT_ID": 67023, "ELEMENT_SET_NO": 999, "REV_AT_EPOCH": 242, "BSTAR": -0.014886, "MEAN_MOTION_DOT": -0.0162109, "MEAN_MOTION_DDOT": 0}, "tle": {"line1": "1 67023U 25293W   25361.16668980 -.01621090  00000+0 -14886-1 0  9998", "line2": "2 67023  69.9979 282.1144 0003775 270.5501 135.2011 15.70378321  2421"}}, "geometry": {"type": "Point", "coordinates": [-84.05898118166313, -14.250427307646662]}}, {"type": "Feature", "properties": {"norad_id": 67024, "name": "STARLINK-36192", "group": "last-30-days", "lat": -12.016234786583343, "lon": -83.19939906173427, "alt_km": 364.73436139796286, "timestamp": "2025-12-27T11:23:18.581696+00:00", "meta": {"OBJECT_NAME": "STARLINK-36192", "OBJECT_ID": "2025-293X", "EPOCH": "2025-12-26T22:00:01.999584", "MEAN_MOTION": 15.7129701, "ECCENTRICITY": 0.00036193, "INCLINATION": 69.9971, "RA_OF_ASC_NODE": 282.8162, "ARG_OF_PERICENTER": 267.3555, "MEAN_ANOMALY": 167.5086, "EPHEMERIS_TYPE": 0, "CLASSIFICATION_TYPE": "U", "NORAD_CAT_ID": 67024, "ELEMENT_SET_NO": 999, "REV_AT_EPOCH": 250, "BSTAR": -0.015097584, "MEAN_MOTION_DOT": -0.01698708, "MEAN_MOTION_DDOT": 0}, "tle": {"line1": "1 67024U 25293X   25360.91668981 -.01698708  00000+0 -15098-1 0  9998", "line2": "2 67024  69.9971 282.8162 0003619 267.3555 167.5086 15.71297010  2506"}}, "geometry": {"type": "Point", "coordinates": [-83.19939906173427, -12.016234786583343]}}, {"type": "Feature", "properties": {"norad_id": 67025, "name": "STARLINK-36178", "group": "last-30-days", "lat": -10.000310696714982, "lon": -82.4389410489925, "alt_km": 364.36841055924833, "timestamp": "2025-12-27T11:23:18.581706+00:00", "meta": {"OBJECT_NAME": "STARLINK-36178", "OBJECT_ID": "2025-293Y", "EPOCH": "2025-12-27T04:00:01.998720", "MEAN_MOTION": 15.70334044, "ECCENTRICITY": 0.0003541, "INCLINATION": 69.9975, "RA_OF_ASC_NODE": 282.1089, "ARG_OF_PERICENTER": 272.1116, "MEAN_ANOMALY": 138.2268, "EPHEMERIS_TYPE": 0, "CLASSIFICATION_TYPE": "U", "NORAD_CAT_ID": 67025, "ELEMENT_SET_NO": 999, "REV_AT_EPOCH": 254, "BSTAR": -0.01485, "MEAN_MOTION_DOT": -0.01614789, "MEAN_MOTION_DDOT": 0}, "tle": {"line1": "1 67025U 25293Y   25361.16668980 -.01614789  00000+0 -14850-1 0  9998", "line2": "2 67025  69.9975 282.1089 0003541 272.1116 138.2268 15.70334044  2542"}}, "geometry": {"type": "Point", "coordinates": [-82.4389410489925, -10.000310696714982]}}, {"type": "Feature", "properties": {"norad_id": 67026, "name": "STARLINK-36176", "group": "last-30-days", "lat": -5.76715153978394, "lon": -80.86974548845285, "alt_km": 364.1748897825528, "timestamp": "2025-12-27T11:23:18.581729+00:00", "meta": {"OBJECT_NAME": "STARLINK-36176", "OBJECT_ID": "2025-293Z", "EPOCH": "2025-12-27T04:00:01.998720", "MEAN_MOTION": 15.70295722, "ECCENTRICITY": 0.000353, "INCLINATION": 69.9974, "RA_OF_ASC_NODE": 282.1036, "ARG_OF_PERICENTER": 272.3915, "MEAN_ANOMALY": 142.5028, "EPHEMERIS_TYPE": 0, "CLASSIFICATION_TYPE": "U", "NORAD_CAT_ID": 67026, "ELEMENT_SET_NO": 999, "REV_AT_EPOCH": 254, "BSTAR": -0.014929, "MEAN_MOTION_DOT": -0.01620047, "MEAN_MOTION_DDOT": 0}, "tle": {"line1": "1 67026U 25293Z   25361.16668980 -.01620047  00000+0 -14929-1 0  9990", "line2": "2 67026  69.9974 282.1036 0003530 272.3915 142.5028 15.70295722  2542"}}, "geometry": {"type": "Point", "coordinates": [-80.86974548845285, -5.76715153978394]}}, {"type": "Feature", "properties": {"norad_id": 67027, "name": "STARLINK-36171", "group": "last-30-days", "lat": -7.720720044871035, "lon": -81.58971744507446, "alt_km": 364.3627597107943, "timestamp": "2025-12-27T11:23:18.581741+00:00", "meta": {"OBJECT_NAME": "STARLINK-36171", "OBJECT_ID": "2025-293AA", "EPOCH": "2025-12-27T04:00:01.998720", "MEAN_MOTION": 15.70308334, "ECCENTRICITY": 0.0003521, "INCLINATION": 69.9969, "RA_OF_ASC_NODE": 282.1061, "ARG_OF_PERICENTER": 270.5845, "MEAN_ANOMALY": 142.215, "EPHEMERIS_TYPE": 0, "CLASSIFICATION_TYPE": "U", "NORAD_CAT_ID": 67027, "ELEMENT_SET_NO": 999, "REV_AT_EPOCH": 254, "BSTAR": -0.014929, "MEAN_MOTION_DOT": -0.0162079, "MEAN_MOTION_DDOT": 0}, "tle": {"line1": "1 67027U 25293AA  25361.16668980 -.01620790  00000+0 -14929-1 0  9996", "line2": "2 67027  69.9969 282.1061 0003521 270.5845 142.2150 15.70308334  2544"}}, "geometry": {"type": "Point", "coordinates": [-81.58971744507446, -7.720720044871035]}}, {"type": "Feature", "properties": {"norad_id": 67028, "name": "STARLINK-36132", "group": "last-30-days", "lat": -1.508160629532775, "lon": -79.31604241100948, "alt_km": 363.910928572609, "timestamp": "2025-12-27T11:23:18.581752+00:00", "meta": {"OBJECT_NAME": "STARLINK-36132", "OBJECT_ID": "2025-293AB", "EPOCH": "2025-12-27T04:00:01.998720", "MEAN_MOTION": 15.70253764, "ECCENTRICITY": 0.000365, "INCLINATION": 69.9973, "RA_OF_ASC_NODE": 282.0983, "ARG_OF_PERICENTER": 273.0859, "MEAN_ANOMALY": 146.3861, "EPHEMERIS_TYPE": 0, "CLASSIFICATION_TYPE": "U", "NORAD_CAT_ID": 67028, "ELEMENT_SET_NO": 999, "REV_AT_EPOCH": 254, "BSTAR": -0.014933, "MEAN_MOTION_DOT": -0.01618055, "MEAN_MOTION_DDOT": 0}, "tle": {"line1": "1 67028U 25293AB  25361.16668980 -.01618055  00000+0 -14933-1 0  9993", "line2": "2 67028  69.9973 282.0983 0003650 273.0859 146.3861 15.70253764  2548"}}, "geometry": {"type": "Point", "coordinates": [-79.31604241100948, -1.508160629532775]}}, {"type": "Feature", "properties": {"norad_id": 67029, "name": "STARLINK-36190", "group": "last-30-days", "lat": -3.758494163183047, "lon": -80.13435495034585, "alt_km": 364.0816597870671, "timestamp": "2025-12-27T11:23:18.581764+00:00", "meta": {"OBJECT_NAME": "STARLINK-36190", "OBJECT_ID": "2025-293AC", "EPOCH": "2025-12-27T04:00:01.998720", "MEAN_MOTION": 15.70283015, "ECCENTRICITY": 0.0003597, "INCLINATION": 69.9978, "RA_OF_ASC_NODE": 282.1017, "ARG_OF_PERICENTER": 271.5751, "MEAN_ANOMALY": 145.4705, "EPHEMERIS_TYPE": 0, "CLASSIFICATION_TYPE": "U", "NORAD_CAT_ID": 67029, "ELEMENT_SET_NO": 999, "REV_AT_EPOCH": 254, "BSTAR": -0.014924, "MEAN_MOTION_DOT": -0.01618852, "MEAN_MOTION_DDOT": 0}, "tle": {"line1": "1 67029U 25293AC  25361.16668980 -.01618852  00000+0 -14924-1 0  9999", "line2": "2 67029  69.9978 282.1017 0003597 271.5751 145.4705 15.70283015  2546"}}, "geometry": {"type": "Point", "coordinates": [-80.13435495034585, -3.758494163183047]}}, {"type": "Feature", "properties": {"norad_id": 67030, "name": "STARLINK-36138", "group": "last-30-days", "lat": -34.100948815216924, "lon": -41.01226685254829, "alt_km": 384.8058242044581, "timestamp": "2025-12-27T11:23:18.581774+00:00", "meta": {"OBJECT_NAME": "STARLINK-36138", "OBJECT_ID": "2025-294A", "EPOCH": "2025-12-27T04:00:01.998720", "MEAN_MOTION": 15.63009138, "ECCENTRICITY": 0.0001508, "INCLINATION": 42.999, "RA_OF_ASC_NODE": 94.2167, "ARG_OF_PERICENTER": 266.9169, "MEAN_ANOMALY": 34.8865, "EPHEMERIS_TYPE": 0, "CLASSIFICATION_TYPE": "U", "NORAD_CAT_ID": 67030, "ELEMENT_SET_NO": 999, "REV_AT_EPOCH": 242, "BSTAR": -0.023269, "MEAN_MOTION_DOT": -0.01919932, "MEAN_MOTION_DDOT": 0}, "tle": {"line1": "1 67030U 25294A   25361.16668980 -.01919932  00000+0 -23269-1 0  9997", "line2": "2 67030  42.9990  94.2167 0001508 266.9169  34.8865 15.63009138  2421"}}, "geometry": {"type": "Point", "coordinates": [-41.01226685254829, -34.100948815216924]}}]}